satname,norad_id,inclination_deg,eccentricity,mean_motion_rev_per_day,perigee_km,apogee_km,l1,l2
STARLINK-1008,44714,53.156,0.0003257,15.34652195,459.7259486093135,464.1815837343984,1 44714U 19074B   26102.94173033  .00025458  00000+0  75593-3 0  9997,2 44714  53.1560  19.0447 0003257 140.4126 219.7115 15.34652195354124
STARLINK-1012,44718,53.1601,0.0003796,15.34009069,461.26819215753494,466.46264039197195,1 44718U 19074F   26102.93979029  .00054261  00000+0  16252-2 0  9999,2 44718  53.1601  19.3178 0003796 134.0028 226.1288 15.34009069354114
STARLINK-1017,44723,53.0532,0.0003507,15.27421482,481.11741256696223,485.93018144998496,1 44723U 19074L   26102.93365448  .00027961  00000+0  10368-2 0  9998,2 44723  53.0532  13.0819 0003507 142.1416 217.9829 15.27421482354192
STARLINK-1019,44724,53.0373,0.0004332,15.94741137,286.147558375892,291.92399687042507,1 44724U 19074M   26103.00002315  .00441128  88772-4  11310-2 0  9999,2 44724  53.0373 322.6757 0004332 263.7548 132.1221 15.94741137  6294
STARLINK-1020,44725,53.1593,0.0003032,15.33051483,464.63889574878704,468.78961354960575,1 44725U 19074N   26102.93632273  .00038212  00000+0  11856-2 0  9997,2 44725  53.1593  44.5332 0003032 135.0401 225.0847 15.33051483353746
STARLINK-1036,44741,53.0459,0.0004962,15.63502596,374.19653692206066,380.9008794188476,1 44741U 19074AE  26102.77063724  .00090749  00000+0  95700-3 0  9990,2 44741  53.0459  22.6570 0004962 103.9836 256.1729 15.63502596354041
STARLINK-1039,44744,53.0643,0.0001434,15.24848274,490.25600670974745,492.2261443418083,1 44744U 19074AH  26102.86581091  .00030972  00000+0  12390-2 0  9990,2 44744  53.0643  57.6607 0001434  59.2800 300.8338 15.24848274353565
STARLINK-1042,44747,53.0432,4.39e-05,15.51775714,411.24338890317813,411.8395226715975,1 44747U 19074AL  26102.93938808  .00016766  00000+0  28314-3 0  9992,2 44747  53.0432 290.2332 0000439 205.4354 154.6633 15.51775714355380
STARLINK-1043,44748,53.0527,0.0002595,15.56037155,397.3807192865206,400.89812574980806,1 44748U 19074AM  26102.78967078  .00026588  00000+0  38052-3 0  9990,2 44748  53.0527  29.6819 0002595 126.3290 233.7960 15.56037155353953
STARLINK-1046,44751,53.0505,0.0001606,15.4808097,421.24811225560643,423.4324255543788,1 44751U 19074AQ  26102.55918377  .00057473  00000+0  10790-2 0  9992,2 44751  53.0505  49.4209 0001606 319.9472  40.1417 15.48080970353658
STARLINK-1047,44752,53.071,0.0002344,15.33447405,463.93186194391456,467.1401758551756,1 44752U 19074AR  26102.85424073  .00004470  00000+0  14763-3 0  9995,2 44752  53.0710 346.3062 0002344  12.9387 347.1674 15.33447405354580
STARLINK-1048,44753,53.0504,0.0002131,15.59927631,386.4244987350967,389.3081693560671,1 44753U 19074AS  26102.93514664  .00137400  00000+0  16515-2 0  9997,2 44753  53.0504   2.8771 0002131 131.7409 228.3786 15.59927631354331
STARLINK-1063,44768,53.1584,0.0003632,15.33596168,462.6079805149793,467.5789031079121,1 44768U 19074BH  26102.94440175  .00037355  00000+0  11396-2 0  9999,2 44768  53.1584  59.9283 0003632 111.1152 249.0239 15.33596168353567
STARLINK-1067,44771,53.0485,0.0006427,15.64690532,369.78925026080833,378.4686128892554,1 44771U 19074BL  26102.82519262  .00046404  00000+0  47203-3 0  9996,2 44771  53.0485  37.7151 0006427 106.7596 253.4124 15.64690532353842
STARLINK-1068,44772,53.047,0.0004035,15.68481045,360.5256973030355,365.9659932591767,1 44772U 19074BM  26102.95236236  .00041656  00000+0  36477-3 0  9993,2 44772  53.0470  11.4186 0004035  69.3713 290.7736 15.68481045354218
STARLINK-1114,44927,53.0459,0.0004378,15.56711427,394.2160458631479,400.1485154252805,1 44927U 20001P   26102.65002704  .00064704  00000+0  88912-3 0  9995,2 44927  53.0459 165.5726 0004378 294.9448  65.1108 15.56711427345370
STARLINK-1123,44930,53.1478,0.0004184,15.3141265,468.7307759762398,474.4626331402151,1 44930U 20001S   26102.61204342  .00053023  00000+0  17233-2 0  9996,2 44930  53.1478 187.6274 0004184  31.7649 328.3604 15.31412650345064
STARLINK-1094,44941,53.1579,0.0002654,15.33019815,464.9918697318262,468.62516681292436,1 44941U 20001AD  26102.88628347  .00023882  00000+0  74744-3 0  9993,2 44941  53.1579 160.4782 0002654  37.4882 322.6305 15.33019815345471
STARLINK-1122,44949,53.1589,0.0001292,15.30614709,473.09180954171825,474.8623958258513,1 44949U 20001AM  26102.86859324  .00026978  00000+0  90801-3 0  9991,2 44949  53.1589 160.8404 0001292  90.6326 269.4823 15.30614709345468
STARLINK-1080,44961,53.0487,0.00015,15.5339961,405.7910173163873,407.8265010441419,1 44961U 20001AZ  26102.78486494  .00064674  00000+0  10037-2 0  9997,2 44961  53.0487 124.5335 0001500 332.0187  28.0742 15.53399610345968
STARLINK-1090,44968,53.1527,0.0003617,15.31747684,468.1206679932329,473.0750427876228,1 44968U 20001BG  26102.83549957  .00029198  00000+0  94746-3 0  9996,2 44968  53.1527 147.8184 0003617  36.8014 323.3236 15.31747684345648
STARLINK-1132,45044,53.1536,0.0004763,15.48138616,418.9324673263418,425.4104411598537,1 45044U 20006A   26102.67189649  .00057051  00000+0  10689-2 0  9999,2 45044  53.1536  92.3864 0004763  19.2927 340.8261 15.48138616342189
STARLINK-1131,45047,53.1576,0.0002209,15.31919537,468.5728726256448,471.59841739020794,1 45047U 20006D   26102.75101675  .00025657  00000+0  82999-3 0  9995,2 45047  53.1576 122.6662 0002209  65.4153 294.7079 15.31919537341764
STARLINK-1134,45048,53.03,0.0004002,15.48245484,419.1371638668179,424.57988028268664,1 45048U 20006E   26102.30905080  .00053957  00000+0  10080-2 0  9994,2 45048  53.0300  77.9136 0004002 317.0515  43.0179 15.48245484342340
STARLINK-1156,45054,53.1596,0.000128,15.30539816,473.3235286102363,475.07772704295894,1 45054U 20006L   26102.78602761  .00029932  00000+0  10080-2 0  9999,2 45054  53.1596 122.6122 0001280  95.8093 264.3054 15.30539816341766
STARLINK-1159,45057,53.038,0.0002692,15.96869087,281.3182420492785,284.9046582148285,1 45057U 20006P   26103.00002315  .00449463  94243-4  10270-2 0  9990,2 45057  53.0380  60.4487 0002692 116.9133 322.6037 15.96869087  6428
STARLINK-1166,45060,53.0486,0.0003238,15.51075885,411.3844304200966,415.7827486738879,1 45060U 20006S   26102.98595583  .00061810  00000+0  10432-2 0  9993,2 45060  53.0486 108.5847 0003238  18.9918 341.1210 15.51075885341979
STARLINK-1169,45061,53.1562,0.0003772,15.33012943,464.2470528727099,469.410895203524,1 45061U 20006T   26102.33974009  .00032777  00000+0  10205-2 0  9995,2 45061  53.1562 124.4472 0003772  56.3698 303.7663 15.33012943341704
STARLINK-1171,45062,53.0426,0.0004873,15.67754277,362.0430071089513,368.6151891681975,1 45062U 20006U   26102.92510381  .00040965  00000+0  36954-3 0  9998,2 45062  53.0426  81.2579 0004873  74.2226 285.9326 15.67754277342359
STARLINK-1133,45064,53.1592,0.0001633,15.30590456,472.9305239751411,475.16844808147835,1 45064U 20006W   26102.69361535  .00023739  00000+0  80135-3 0  9999,2 45064  53.1592  99.8435 0001633  81.7407 278.3779 15.30590456342082
STARLINK-1167,45071,53.1586,0.0004631,15.32511434,465.1516247669897,471.4928152965831,1 45071U 20006AD  26102.71115814  .00035335  00000+0  11162-2 0  9995,2 45071  53.1586  99.7031 0004631  70.7419 289.4083 15.32511434342088
STARLINK-1168,45072,53.1576,0.0001492,15.30541589,473.17296794756294,475.2177039166054,1 45072U 20006AE  26102.41374022  .00032609  00000+0  10966-2 0  9993,2 45072  53.1576 101.3581 0001492  96.1332 263.9839 15.30541589342039
STARLINK-1172,45074,53.1557,0.0003616,15.33505092,462.88977870072813,467.8389989051102,1 45074U 20006AG  26102.70389621  .00033930  00000+0  10396-2 0  9993,2 45074  53.1557  99.4677 0003616  69.9074 290.2317 15.33505092342085
STARLINK-1153,45080,53.1595,0.0004444,15.32612231,464.97959790832465,471.06446405506085,1 45080U 20006AN  26102.69493551  .00047695  00000+0  14954-2 0  9993,2 45080  53.1595  99.6928 0004444  77.8555 282.2945 15.32612231342088
STARLINK-1151,45081,53.0506,0.0005051,15.70137763,355.10025753698847,361.90561119868744,1 45081U 20006AP  26102.93434341  .00049764  00000+0  40564-3 0  9999,2 45081  53.0506  71.0696 0005051  85.7836 274.3758 15.70137763342494
STARLINK-1185,45087,53.161,0.000195,15.40217452,444.1363899119715,446.7975954691192,1 45087U 20006AV  26102.67410990  .00044757  00000+0  11005-2 0  9994,2 45087  53.1610  83.1069 0001950 102.1812 257.9411 15.40217452342312
STARLINK-1183,45088,53.1565,0.0015068,15.33619342,454.71322873186,475.3357802417813,1 45088U 20006AW  26102.97537756  .00810698  00000+0  22710-1 0  9997,2 45088  53.1565  83.3017 0015068 201.7542 158.2822 15.33619342342335
STARLINK-1152,45096,53.0375,0.0002729,15.42720602,436.2237304714208,439.94402382616863,1 45096U 20006BE  26102.13585328  .00026822  00000+0  61201-3 0  9990,2 45096  53.0375  48.1959 0002729  33.2939 326.8237 15.42720602342744
STARLINK-1184,45098,53.0514,0.0001659,15.12028869,528.8673645422377,531.1594888538175,1 45098U 20006BG  26102.92608718  .00016362  00000+0  95627-3 0  9995,2 45098  53.0514  90.5901 0001659 240.6281 119.4545 15.12028869342217
STARLINK-1193,45100,53.0501,0.0006844,15.60967995,380.23110541742517,389.4882953008764,1 45100U 20006BJ  26102.31524498  .00081866  00000+0  95377-3 0  9997,2 45100  53.0501  66.9883 0006844  80.2313 279.9472 15.60967995342494
STARLINK-1143,45179,53.0441,0.0004429,15.71672874,351.1338884351926,357.0973177910291,1 45179U 20012B   26102.00002315  .00176574  00000+0  13183-2 0  9990,2 45179  53.0441 165.8963 0004429 292.6935 162.8330 15.71672874  6184
STARLINK-1202,45183,53.1569,9.49e-05,15.30385018,474.01236398645597,475.3130253685058,1 45183U 20012F   26102.78279732  .00023017  00000+0  78236-3 0  9993,2 45183  53.1569 240.8889 0000949  31.4681 328.6377 15.30385018340171
STARLINK-1216,45185,53.1594,0.0001717,15.30600561,472.84281207126423,475.19584255406426,1 45185U 20012H   26102.70728154  .00009090  00000+0  31477-3 0  9995,2 45185  53.1594 241.2108 0001717  36.7621 323.3498 15.30600561340108
